{
  "type": "FeatureCollection",
  "features": [
    {
      "type": "Feature",
      "properties": {
        "norad_id": 34540,
        "name": "IRIDIUM 33 DEB",
        "group": "iridium-33-debris",
        "lat": -44.05490452699879,
        "lon": 132.94249519865255,
        "alt_km": 644.4548282993337,
        "timestamp": "2025-12-08T21:31:05.051839+00:00",
        "meta_object_name": "IRIDIUM 33 DEB",
        "meta_object_id": "1997-051JH",
        "meta_epoch": "2025-12-08T09:40:04.078272",
        "meta_mean_motion": 14.75175459,
        "meta_eccentricity": 0.00156424,
        "meta_inclination": 86.3108,
        "meta_ra_of_asc_node": 309.589,
        "meta_arg_of_pericenter": 174.5851,
        "meta_mean_anomaly": 308.8741,
        "meta_ephemeris_type": 0,
        "meta_classification_type": "U",
        "meta_norad_cat_id": 34540,
        "meta_element_set_no": 999,
        "meta_rev_at_epoch": 88957,
        "meta_bstar": 0.0020897617,
        "meta_mean_motion_dot": 0.00014177,
        "meta_mean_motion_ddot": 0,
        "tle_line1": "1 34540U 97051JH  25342.40282498  .00014177  00000+0  20898-2 0  9999",
        "tle_line2": "2 34540  86.3108 309.5890 0015642 174.5851 308.8741 14.75175459889573"
      },
      "geometry": {
        "type": "Point",
        "coordinates": [
          132.94249519865255,
          -44.05490452699879
        ]
      }
    },
    {
      "type": "Feature",
      "properties": {
        "norad_id": 34648,
        "name": "IRIDIUM 33 DEB",
        "group": "iridium-33-debris",
        "lat": 8.406274793098909,
        "lon": 102.96366839874902,
        "alt_km": 956.7975061500774,
        "timestamp": "2025-12-08T21:31:05.051850+00:00",
        "meta_object_name": "IRIDIUM 33 DEB",
        "meta_object_id": "1997-051JZ",
        "meta_epoch": "2025-12-08T13:53:15.909504",
        "meta_mean_motion": 14.11285749,
        "meta_eccentricity": 0.0184134,
        "meta_inclination": 86.3917,
        "meta_ra_of_asc_node": 283.6262,
        "meta_arg_of_pericenter": 311.8216,
        "meta_mean_anomaly": 46.7365,
        "meta_ephemeris_type": 0,
        "meta_classification_type": "U",
        "meta_norad_cat_id": 34648,
        "meta_element_set_no": 999,
        "meta_rev_at_epoch": 84902,
        "meta_bstar": 0.011654407,
        "meta_mean_motion_dot": 0.00024755,
        "meta_mean_motion_ddot": 0,
        "tle_line1": "1 34648U 97051JZ  25342.57865636  .00024755  00000+0  11654-1 0  9999",
        "tle_line2": "2 34648  86.3917 283.6262 0184134 311.8216  46.7365 14.11285749849029"
      },
      "geometry": {
        "type": "Point",
        "coordinates": [
          102.96366839874902,
          8.406274793098909
        ]
      }
    },
    {
      "type": "Feature",
      "properties": {
        "norad_id": 34651,
        "name": "IRIDIUM 33 DEB",
        "group": "iridium-33-debris",
        "lat": 32.05043498097838,
        "lon": 144.5432181203732,
        "alt_km": 906.0779509114009,
        "timestamp": "2025-12-08T21:31:05.051861+00:00",
        "meta_object_name": "IRIDIUM 33 DEB",
        "meta_object_id": "1997-051KC",
        "meta_epoch": "2025-12-08T11:15:25.709184",
        "meta_mean_motion": 14.25701829,
        "meta_eccentricity": 0.01419793,
        "meta_inclination": 86.2851,
        "meta_ra_of_asc_node": 142.3937,
        "meta_arg_of_pericenter": 217.4974,
        "meta_mean_anomaly": 141.625,
        "meta_ephemeris_type": 0,
        "meta_classification_type": "U",
        "meta_norad_cat_id": 34651,
        "meta_element_set_no": 999,
        "meta_rev_at_epoch": 85835,
        "meta_bstar": 0.0043129114,
        "meta_mean_motion_dot": 0.00011398,
        "meta_mean_motion_ddot": 0,
        "tle_line1": "1 34651U 97051KC  25342.46904756  .00011398  00000+0  43129-2 0  9990",
        "tle_line2": "2 34651  86.2851 142.3937 0141979 217.4974 141.6250 14.25701829858352"
      },
      "geometry": {
        "type": "Point",
        "coordinates": [
          144.5432181203732,
          32.05043498097838
        ]
      }
    },
    {
      "type": "Feature",
      "properties": {
        "norad_id": 34652,
        "name": "IRIDIUM 33 DEB",
        "group": "iridium-33-debris",
        "lat": -57.69651222269497,
        "lon": -24.11258081359338,
        "alt_km": 675.599165170488,
        "timestamp": "2025-12-08T21:31:05.051871+00:00",
        "meta_object_name": "IRIDIUM 33 DEB",
        "meta_object_id": "1997-051KD",
        "meta_epoch": "2025-12-08T10:58:52.274208",
        "meta_mean_motion": 14.61994532,
        "meta_eccentricity": 0.00263276,
        "meta_inclination": 86.3309,
        "meta_ra_of_asc_node": 341.9078,
        "meta_arg_of_pericenter": 313.8102,
        "meta_mean_anomaly": 199.1921,
        "meta_ephemeris_type": 0,
        "meta_classification_type": "U",
        "meta_norad_cat_id": 34652,
        "meta_element_set_no": 999,
        "meta_rev_at_epoch": 88421,
        "meta_bstar": 0.0013948529,
        "meta_mean_motion_dot": 7.048e-05,
        "meta_mean_motion_ddot": 0,
        "tle_line1": "1 34652U 97051KD  25342.45754947  .00007048  00000+0  13949-2 0  9999",
        "tle_line2": "2 34652  86.3309 341.9078 0026327 313.8102 199.1921 14.61994532884210"
      },
      "geometry": {
        "type": "Point",
        "coordinates": [
          -24.11258081359338,
          -57.69651222269497
        ]
      }
    },
    {
      "type": "Feature",
      "properties": {
        "norad_id": 34690,
        "name": "IRIDIUM 33 DEB",
        "group": "iridium-33-debris",
        "lat": -80.28365065847277,
        "lon": -119.62779157889773,
        "alt_km": 722.7097667095577,
        "timestamp": "2025-12-08T21:31:05.051881+00:00",
        "meta_object_name": "IRIDIUM 33 DEB",
        "meta_object_id": "1997-051KM",
        "meta_epoch": "2025-12-08T10:30:30.417984",
        "meta_mean_motion": 14.55072153,
        "meta_eccentricity": 0.0011347,
        "meta_inclination": 86.3781,
        "meta_ra_of_asc_node": 38.8609,
        "meta_arg_of_pericenter": 42.3651,
        "meta_mean_anomaly": 337.2533,
        "meta_ephemeris_type": 0,
        "meta_classification_type": "U",
        "meta_norad_cat_id": 34690,
        "meta_element_set_no": 999,
        "meta_rev_at_epoch": 88032,
        "meta_bstar": 0.00077031918,
        "meta_mean_motion_dot": 3.344e-05,
        "meta_mean_motion_ddot": 0,
        "tle_line1": "1 34690U 97051KM  25342.43785206  .00003344  00000+0  77032-3 0  9990",
        "tle_line2": "2 34690  86.3781  38.8609 0011347  42.3651 337.2533 14.55072153880328"
      },
      "geometry": {
        "type": "Point",
        "coordinates": [
          -119.62779157889773,
          -80.28365065847277
        ]
      }
    },
    {
      "type": "Feature",
      "properties": {
        "norad_id": 34693,
        "name": "IRIDIUM 33 DEB",
        "group": "iridium-33-debris",
        "lat": 32.64490134073258,
        "lon": -51.896282677796876,
        "alt_km": 475.20935915119844,
        "timestamp": "2025-12-08T21:31:05.051891+00:00",
        "meta_object_name": "IRIDIUM 33 DEB",
        "meta_object_id": "1997-051KQ",
        "meta_epoch": "2025-12-08T15:50:05.259840",
        "meta_mean_motion": 15.26461537,
        "meta_eccentricity": 0.00148465,
        "meta_inclination": 86.3061,
        "meta_ra_of_asc_node": 305.849,
        "meta_arg_of_pericenter": 59.4216,
        "meta_mean_anomaly": 113.0405,
        "meta_ephemeris_type": 0,
        "meta_classification_type": "U",
        "meta_norad_cat_id": 34693,
        "meta_element_set_no": 999,
        "meta_rev_at_epoch": 88852,
        "meta_bstar": 0.0056202555,
        "meta_mean_motion_dot": 0.00149619,
        "meta_mean_motion_ddot": 0,
        "tle_line1": "1 34693U 97051KQ  25342.65978310  .00149619  00000+0  56203-2 0  9999",
        "tle_line2": "2 34693  86.3061 305.8490 0014846  59.4216 113.0405 15.26461537888525"
      },
      "geometry": {
        "type": "Point",
        "coordinates": [
          -51.896282677796876,
          32.64490134073258
        ]
      }
    },
    {
      "type": "Feature",
      "properties": {
        "norad_id": 34696,
        "name": "IRIDIUM 33 DEB",
        "group": "iridium-33-debris",
        "lat": -83.0823292886821,
        "lon": -117.32275347078324,
        "alt_km": 679.173584299785,
        "timestamp": "2025-12-08T21:31:05.051901+00:00",
        "meta_object_name": "IRIDIUM 33 DEB",
        "meta_object_id": "1997-051KT",
        "meta_epoch": "2025-12-08T14:27:39.651264",
        "meta_mean_motion": 14.64750758,
        "meta_eccentricity": 0.00743176,
        "meta_inclination": 86.1849,
        "meta_ra_of_asc_node": 29.4472,
        "meta_arg_of_pericenter": 181.4638,
        "meta_mean_anomaly": 332.3745,
        "meta_ephemeris_type": 0,
        "meta_classification_type": "U",
        "meta_norad_cat_id": 34696,
        "meta_element_set_no": 999,
        "meta_rev_at_epoch": 86612,
        "meta_bstar": 0.0061607516,
        "meta_mean_motion_dot": 0.00034329,
        "meta_mean_motion_ddot": 0,
        "tle_line1": "1 34696U 97051KT  25342.60254226  .00034329  00000+0  61608-2 0  9996",
        "tle_line2": "2 34696  86.1849  29.4472 0074317 181.4638 332.3745 14.64750758866124"
      },
      "geometry": {
        "type": "Point",
        "coordinates": [
          -117.32275347078324,
          -83.0823292886821
        ]
      }
    }
  ]
}